STARLINK-1807_new
1 16706C 20073AN  21326.14253109  .00006217  00000-0  41643-3 0  3265
2 16706  53.0534  83.0931 0001258  86.0255 332.1316 15.06402595    18
STARLINK-1807_old
1 26706C 20073AN  21325.14705910  .00004348  00000-0  29132-3 0  3257
2 26706  53.0529  87.5619 0001285  88.8650 327.8263 15.06391634    16
